[{"OBJECT_NAME":"GHS-01","OBJECT_ID":"1998-067XM","EPOCH":"2026-01-14T05:22:54.240960","MEAN_MOTION":16.01928812,"ECCENTRICITY":0.00078441,"INCLINATION":51.622,"RA_OF_ASC_NODE":325.6179,"ARG_OF_PERICENTER":124.1093,"MEAN_ANOMALY":236.0662,"EPHEMERIS_TYPE":0,"CLASSIFICATION_TYPE":"U","NORAD_CAT_ID":65733,"ELEMENT_SET_NO":999,"REV_AT_EPOCH":1833,"BSTAR":0.0013028289,"MEAN_MOTION_DOT":0.00764699,"MEAN_MOTION_DDOT":0.00028838864},{"OBJECT_NAME":"YOTSUBA-KULOVER","OBJECT_ID":"1998-067XN","EPOCH":"2026-01-14T06:40:42.357792","MEAN_MOTION":15.64781425,"ECCENTRICITY":0.0004077,"INCLINATION":51.6292,"RA_OF_ASC_NODE":335.8225,"ARG_OF_PERICENTER":102.6207,"MEAN_ANOMALY":257.5244,"EPHEMERIS_TYPE":0,"CLASSIFICATION_TYPE":"U","NORAD_CAT_ID":65941,"ELEMENT_SET_NO":999,"REV_AT_EPOCH":1494,"BSTAR":0.00062040984,"MEAN_MOTION_DOT":0.00061553,"MEAN_MOTION_DDOT":0},{"OBJECT_NAME":"BOTAN","OBJECT_ID":"1998-067XP","EPOCH":"2026-01-14T04:21:18.002304","MEAN_MOTION":15.71604384,"ECCENTRICITY":0.00048026,"INCLINATION":51.6262,"RA_OF_ASC_NODE":334.4147,"ARG_OF_PERICENTER":100.655,"MEAN_ANOMALY":259.4989,"EPHEMERIS_TYPE":0,"CLASSIFICATION_TYPE":"U","NORAD_CAT_ID":65942,"ELEMENT_SET_NO":999,"REV_AT_EPOCH":1495,"BSTAR":0.00083177755,"MEAN_MOTION_DOT":0.00110159,"MEAN_MOTION_DDOT":0},{"OBJECT_NAME":"E-KAGAKU-1","OBJECT_ID":"1998-067XQ","EPOCH":"2026-01-14T06:40:34.098816","MEAN_MOTION":15.64767844,"ECCENTRICITY":0.00026838,"INCLINATION":51.6306,"RA_OF_ASC_NODE":335.8283,"ARG_OF_PERICENTER":102.0285,"MEAN_ANOMALY":258.1011,"EPHEMERIS_TYPE":0,"CLASSIFICATION_TYPE":"U","NORAD_CAT_ID":65943,"ELEMENT_SET_NO":999,"REV_AT_EPOCH":1494,"BSTAR":0.00060563019,"MEAN_MOTION_DOT":0.00060017,"MEAN_MOTION_DDOT":0},{"OBJECT_NAME":"HRC MONOBLOCK CAMERA","OBJECT_ID":"1998-067XR","EPOCH":"2026-01-14T06:58:42.044160","MEAN_MOTION":15.56630202,"ECCENTRICITY":0.00011278,"INCLINATION":51.6307,"RA_OF_ASC_NODE":338.9068,"ARG_OF_PERICENTER":0.6803,"MEAN_ANOMALY":359.419,"EPHEMERIS_TYPE":0,"CLASSIFICATION_TYPE":"U","NORAD_CAT_ID":66052,"ELEMENT_SET_NO":999,"REV_AT_EPOCH":1390,"BSTAR":0.00037016407,"MEAN_MOTION_DOT":0.00026465,"MEAN_MOTION_DDOT":0},{"OBJECT_NAME":"HTV-X1","OBJECT_ID":"2025-241A","EPOCH":"2026-01-14T15:04:24.142944","MEAN_MOTION":15.49289811,"ECCENTRICITY":0.00077638,"INCLINATION":51.6333,"RA_OF_ASC_NODE":339.6562,"ARG_OF_PERICENTER":17.9854,"MEAN_ANOMALY":342.1408,"EPHEMERIS_TYPE":0,"CLASSIFICATION_TYPE":"U","NORAD_CAT_ID":66174,"ELEMENT_SET_NO":999,"REV_AT_EPOCH":51,"BSTAR":0.00013043682,"MEAN_MOTION_DOT":6.818e-5,"MEAN_MOTION_DDOT":0},{"OBJECT_NAME":"SZ-21 MODULE","OBJECT_ID":"2025-246C","EPOCH":"2026-01-14T12:00:12.087360","MEAN_MOTION":15.6448212,"ECCENTRICITY":0.00020031,"INCLINATION":41.474,"RA_OF_ASC_NODE":175.9087,"ARG_OF_PERICENTER":169.7088,"MEAN_ANOMALY":190.3794,"EPHEMERIS_TYPE":0,"CLASSIFICATION_TYPE":"U","NORAD_CAT_ID":66515,"ELEMENT_SET_NO":999,"REV_AT_EPOCH":957,"BSTAR":0.00022760418,"MEAN_MOTION_DOT":0.00022256,"MEAN_MOTION_DDOT":0},{"OBJECT_NAME":"SHENZHOU-22","OBJECT_ID":"2025-272A","EPOCH":"2026-01-14T11:53:18.953664","MEAN_MOTION":15.6050506,"ECCENTRICITY":0.00114215,"INCLINATION":41.465,"RA_OF_ASC_NODE":177.6413,"ARG_OF_PERICENTER":283.7377,"MEAN_ANOMALY":76.219,"EPHEMERIS_TYPE":0,"CLASSIFICATION_TYPE":"U","NORAD_CAT_ID":66645,"ELEMENT_SET_NO":999,"REV_AT_EPOCH":26764,"BSTAR":0.00015080508,"MEAN_MOTION_DOT":0.00012503,"MEAN_MOTION_DDOT":0},{"OBJECT_NAME":"SOYUZ-MS 28","OBJECT_ID":"2025-275A","EPOCH":"2026-01-14T15:04:24.142944","MEAN_MOTION":15.49289811,"ECCENTRICITY":0.00077638,"INCLINATION":51.6333,"RA_OF_ASC_NODE":339.6562,"ARG_OF_PERICENTER":17.9854,"MEAN_ANOMALY":342.1408,"EPHEMERIS_TYPE":0,"CLASSIFICATION_TYPE":"U","NORAD_CAT_ID":66664,"ELEMENT_SET_NO":999,"REV_AT_EPOCH":128,"BSTAR":0.00013043682,"MEAN_MOTION_DOT":6.818e-5,"MEAN_MOTION_DDOT":0},{"OBJECT_NAME":"1998-067XS","OBJECT_ID":"1998-067XS","EPOCH":"2026-01-14T07:42:17.522496","MEAN_MOTION":15.52452216,"ECCENTRICITY":0.00022545,"INCLINATION":51.6318,"RA_OF_ASC_NODE":340.608,"ARG_OF_PERICENTER":11.6436,"MEAN_ANOMALY":348.4605,"EPHEMERIS_TYPE":0,"CLASSIFICATION_TYPE":"U","NORAD_CAT_ID":66906,"ELEMENT_SET_NO":999,"REV_AT_EPOCH":667,"BSTAR":0.00030586371,"MEAN_MOTION_DOT":0.00018629,"MEAN_MOTION_DDOT":0},{"OBJECT_NAME":"1998-067XT","OBJECT_ID":"1998-067XT","EPOCH":"2026-01-14T06:30:38.263680","MEAN_MOTION":15.56293916,"ECCENTRICITY":0.00036291,"INCLINATION":51.6311,"RA_OF_ASC_NODE":340.2751,"ARG_OF_PERICENTER":58.4137,"MEAN_ANOMALY":301.7208,"EPHEMERIS_TYPE":0,"CLASSIFICATION_TYPE":"U","NORAD_CAT_ID":66907,"ELEMENT_SET_NO":999,"REV_AT_EPOCH":667,"BSTAR":0.00071443219,"MEAN_MOTION_DOT":0.00051061,"MEAN_MOTION_DDOT":0},{"OBJECT_NAME":"1998-067XU","OBJECT_ID":"1998-067XU","EPOCH":"2026-01-14T06:29:17.865888","MEAN_MOTION":15.56263291,"ECCENTRICITY":0.00035529,"INCLINATION":51.6306,"RA_OF_ASC_NODE":340.2677,"ARG_OF_PERICENTER":53.6939,"MEAN_ANOMALY":306.438,"EPHEMERIS_TYPE":0,"CLASSIFICATION_TYPE":"U","NORAD_CAT_ID":66908,"ELEMENT_SET_NO":999,"REV_AT_EPOCH":667,"BSTAR":0.00071282154,"MEAN_MOTION_DOT":0.00050885,"MEAN_MOTION_DDOT":0},{"OBJECT_NAME":"SILVERSAT","OBJECT_ID":"1998-067XV","EPOCH":"2026-01-14T07:49:50.540160","MEAN_MOTION":15.56976971,"ECCENTRICITY":0.00038132,"INCLINATION":51.6311,"RA_OF_ASC_NODE":339.8918,"ARG_OF_PERICENTER":65.7143,"MEAN_ANOMALY":294.4246,"EPHEMERIS_TYPE":0,"CLASSIFICATION_TYPE":"U","NORAD_CAT_ID":66909,"ELEMENT_SET_NO":999,"REV_AT_EPOCH":668,"BSTAR":0.00080426426,"MEAN_MOTION_DOT":0.00059095,"MEAN_MOTION_DDOT":0},{"OBJECT_NAME":"1998-067XW","OBJECT_ID":"1998-067XW","EPOCH":"2026-01-14T06:19:23.208384","MEAN_MOTION":15.56596403,"ECCENTRICITY":0.0002567,"INCLINATION":51.629,"RA_OF_ASC_NODE":340.2206,"ARG_OF_PERICENTER":39.5556,"MEAN_ANOMALY":320.5622,"EPHEMERIS_TYPE":0,"CLASSIFICATION_TYPE":"U","NORAD_CAT_ID":66910,"ELEMENT_SET_NO":999,"REV_AT_EPOCH":667,"BSTAR":0.00072829646,"MEAN_MOTION_DOT":0.00052659,"MEAN_MOTION_DDOT":0},{"OBJECT_NAME":"1998-067XX","OBJECT_ID":"1998-067XX","EPOCH":"2026-01-14T02:53:20.450976","MEAN_MOTION":15.57721818,"ECCENTRICITY":0.0002648,"INCLINATION":51.6292,"RA_OF_ASC_NODE":340.7659,"ARG_OF_PERICENTER":57.3033,"MEAN_ANOMALY":302.8214,"EPHEMERIS_TYPE":0,"CLASSIFICATION_TYPE":"U","NORAD_CAT_ID":66911,"ELEMENT_SET_NO":999,"REV_AT_EPOCH":664,"BSTAR":0.00089221938,"MEAN_MOTION_DOT":0.00067538,"MEAN_MOTION_DDOT":0},{"OBJECT_NAME":"1998-067XY","OBJECT_ID":"1998-067XY","EPOCH":"2026-01-14T06:56:50.197632","MEAN_MOTION":15.54874578,"ECCENTRICITY":0.00034513,"INCLINATION":51.6311,"RA_OF_ASC_NODE":340.3961,"ARG_OF_PERICENTER":41.1632,"MEAN_ANOMALY":318.9619,"EPHEMERIS_TYPE":0,"CLASSIFICATION_TYPE":"U","NORAD_CAT_ID":66912,"ELEMENT_SET_NO":999,"REV_AT_EPOCH":666,"BSTAR":0.0005660808,"MEAN_MOTION_DOT":0.00038217,"MEAN_MOTION_DDOT":0}]
